start=new Date('2022-02-18T00:00:00.000Z').valueOf();
sats=[{"REF_FRAME":"TEME","ECCENTRICITY":"0.00014700","CENTER_NAME":"EARTH","COUNTRY_CODE":"US","ELEMENT_SET_NO":"999","FILE":"3305402","TIME_SYSTEM":"UTC","MEAN_MOTION_DDOT":"0.0000000000000","RA_OF_ASC_NODE":"316.5804","OBJECT_TYPE":"PAYLOAD","TLE_LINE2":"2 49749  53.2177 316.5804 0001470  53.8375 331.0714 15.10502940  3638","DECAY_DATE":null,"REV_AT_EPOCH":"363","OBJECT_ID":"2021-115AB","ARG_OF_PERICENTER":"53.8375","BSTAR":"-0.04260700000000","MEAN_MOTION_DOT":"-0.00664508","INCLINATION":"53.2177","APOAPSIS":"535.683","GP_ID":"196245616","LAUNCH_DATE":"2021-12-02","TLE_LINE1":"1 49749U 21115AB  22048.91667824 -.00664508  00000-0 -42607-1 0  9993","MEAN_MOTION":"15.10502940","PERIAPSIS":"533.651","EPOCH":"2022-02-17T22:00:00.999936","OBJECT_NAME":"STARLINK-3250","CLASSIFICATION_TYPE":"U","MEAN_ANOMALY":"331.0714","NORAD_CAT_ID":"49749","SITE":"AFETR","PERIOD":"95.332","EPHEMERIS_TYPE":"0","RCS_SIZE":"LARGE","SEMIMAJOR_AXIS":"6912.802","MEAN_ELEMENT_THEORY":"SGP4"},{"ARG_OF_PERICENTER":"54.1715","OBJECT_ID":"2021-115AC","BSTAR":"-0.03875400000000","MEAN_MOTION_DOT":"-0.00662342","APOAPSIS":"525.860","INCLINATION":"53.2175","GP_ID":"196245867","LAUNCH_DATE":"2021-12-02","TLE_LINE1":"1 49750U 21115AC  22048.91667824 -.00662342  00000-0 -38754-1 0  9997","MEAN_MOTION":"15.13762381","EPOCH":"2022-02-17T22:00:00.999936","PERIAPSIS":"523.621","OBJECT_NAME":"STARLINK-3236","CLASSIFICATION_TYPE":"U","MEAN_ANOMALY":"203.1096","NORAD_CAT_ID":"49750","SITE":"AFETR","PERIOD":"95.127","EPHEMERIS_TYPE":"0","RCS_SIZE":"LARGE","SEMIMAJOR_AXIS":"6902.875","MEAN_ELEMENT_THEORY":"SGP4","REF_FRAME":"TEME","ECCENTRICITY":"0.00016220","CENTER_NAME":"EARTH","COUNTRY_CODE":"US","FILE":"3305402","ELEMENT_SET_NO":"999","TIME_SYSTEM":"UTC","MEAN_MOTION_DDOT":"0.0000000000000","RA_OF_ASC_NODE":"316.5951","OBJECT_TYPE":"PAYLOAD","TLE_LINE2":"2 49750  53.2175 316.5951 0001622  54.1715 203.1096 15.13762381  3645","REV_AT_EPOCH":"364","DECAY_DATE":null},{"NORAD_CAT_ID":"49751","MEAN_ANOMALY":"251.5443","CLASSIFICATION_TYPE":"U","OBJECT_NAME":"STARLINK-3229","PERIAPSIS":"521.575","EPOCH":"2022-02-17T22:00:00.999936","SEMIMAJOR_AXIS":"6900.749","MEAN_ELEMENT_THEORY":"SGP4","EPHEMERIS_TYPE":"0","RCS_SIZE":"LARGE","PERIOD":"95.083","SITE":"AFETR","MEAN_MOTION_DOT":"-0.00663328","OBJECT_ID":"2021-115AD","ARG_OF_PERICENTER":"56.2595","BSTAR":"-0.03805500000000","MEAN_MOTION":"15.14462015","TLE_LINE1":"1 49751U 21115AD  22048.91667824 -.00663328  00000-0 -38055-1 0  9997","LAUNCH_DATE":"2021-12-02","GP_ID":"196246117","APOAPSIS":"523.654","INCLINATION":"53.2176","RA_OF_ASC_NODE":"316.5901","MEAN_MOTION_DDOT":"0.0000000000000","REV_AT_EPOCH":"364","TLE_LINE2":"2 49751  53.2176 316.5901 0001506  56.2595 251.5443 15.14462015  3647","DECAY_DATE":null,"OBJECT_TYPE":"PAYLOAD","COUNTRY_CODE":"US","CENTER_NAME":"EARTH","ECCENTRICITY":"0.00015060","REF_FRAME":"TEME","TIME_SYSTEM":"UTC","FILE":"3305402","ELEMENT_SET_NO":"999"},{"OBJECT_ID":"2021-115AE","BSTAR":"-0.00112480000000","ARG_OF_PERICENTER":"15.5893","MEAN_MOTION_DOT":"-0.00046441","GP_ID":"196245366","APOAPSIS":"446.785","INCLINATION":"53.2177","TLE_LINE1":"1 49752U 21115AE  22048.91667824 -.00046441  00000-0 -11248-2 0  9995","MEAN_MOTION":"15.40496965","LAUNCH_DATE":"2021-12-02","OBJECT_NAME":"STARLINK-3209","EPOCH":"2022-02-17T22:00:00.999936","PERIAPSIS":"442.503","NORAD_CAT_ID":"49752","MEAN_ANOMALY":"77.7556","CLASSIFICATION_TYPE":"U","RCS_SIZE":"LARGE","EPHEMERIS_TYPE":"0","PERIOD":"93.476","SITE":"AFETR","SEMIMAJOR_AXIS":"6822.779","MEAN_ELEMENT_THEORY":"SGP4","ECCENTRICITY":"0.00031380","REF_FRAME":"TEME","COUNTRY_CODE":"US","CENTER_NAME":"EARTH","FILE":"3305402","ELEMENT_SET_NO":"999","TIME_SYSTEM":"UTC","RA_OF_ASC_NODE":"314.6380","MEAN_MOTION_DDOT":"0.0000000000000","OBJECT_TYPE":"PAYLOAD","REV_AT_EPOCH":"365","TLE_LINE2":"2 49752  53.2177 314.6380 0003138  15.5893  77.7556 15.40496965  3655","DECAY_DATE":null},{"RA_OF_ASC_NODE":"316.5860","MEAN_MOTION_DDOT":"0.0000000000000","OBJECT_TYPE":"PAYLOAD","REV_AT_EPOCH":"360","TLE_LINE2":"2 49753  53.2175 316.5860 0001504  75.5669 198.7280 15.13941283  3601","DECAY_DATE":null,"ECCENTRICITY":"0.00015040","REF_FRAME":"TEME","COUNTRY_CODE":"US","CENTER_NAME":"EARTH","ELEMENT_SET_NO":"999","FILE":"3305402","TIME_SYSTEM":"UTC","OBJECT_NAME":"STARLINK-3200","PERIAPSIS":"523.158","EPOCH":"2022-02-17T22:00:00.999936","NORAD_CAT_ID":"49753","MEAN_ANOMALY":"198.7280","CLASSIFICATION_TYPE":"U","EPHEMERIS_TYPE":"0","RCS_SIZE":"LARGE","PERIOD":"95.116","SITE":"AFETR","MEAN_ELEMENT_THEORY":"SGP4","SEMIMAJOR_AXIS":"6902.332","ARG_OF_PERICENTER":"75.5669","BSTAR":"-0.03402100000000","OBJECT_ID":"2021-115AF","MEAN_MOTION_DOT":"-0.00583008","GP_ID":"196245116","APOAPSIS":"525.235","INCLINATION":"53.2175","TLE_LINE1":"1 49753U 21115AF  22048.91667824 -.00583008  00000-0 -34021-1 0  9994","MEAN_MOTION":"15.13941283","LAUNCH_DATE":"2021-12-02"},{"GP_ID":"196246368","APOAPSIS":"446.729","INCLINATION":"53.2176","TLE_LINE1":"1 49754U 21115AG  22048.91667824 -.00024085  00000-0 -57704-3 0  9995","MEAN_MOTION":"15.40489605","LAUNCH_DATE":"2021-12-02","ARG_OF_PERICENTER":"17.8724","OBJECT_ID":"2021-115AG","BSTAR":"-0.00057704000000","MEAN_MOTION_DOT":"-0.00024085","EPHEMERIS_TYPE":"0","RCS_SIZE":"LARGE","PERIOD":"93.477","SITE":"AFETR","SEMIMAJOR_AXIS":"6822.800","MEAN_ELEMENT_THEORY":"SGP4","OBJECT_NAME":"STARLINK-3193","EPOCH":"2022-02-17T22:00:00.999936","PERIAPSIS":"442.602","NORAD_CAT_ID":"49754","MEAN_ANOMALY":"73.3512","CLASSIFICATION_TYPE":"U","ELEMENT_SET_NO":"999","FILE":"3305402","TIME_SYSTEM":"UTC","ECCENTRICITY":"0.00030240","REF_FRAME":"TEME","COUNTRY_CODE":"US","CENTER_NAME":"EARTH","OBJECT_TYPE":"PAYLOAD","TLE_LINE2":"2 49754  53.2176 314.6410 0003024  17.8724  73.3512 15.40489605  3615","REV_AT_EPOCH":"361","DECAY_DATE":null,"RA_OF_ASC_NODE":"314.6410","MEAN_MOTION_DDOT":"0.0000000000000"},{"PERIOD":"95.142","RCS_SIZE":"LARGE","EPHEMERIS_TYPE":"0","SITE":"AFETR","SEMIMAJOR_AXIS":"6903.584","MEAN_ELEMENT_THEORY":"SGP4","OBJECT_NAME":"STARLINK-3210","EPOCH":"2022-02-17T22:00:00.999936","PERIAPSIS":"524.246","NORAD_CAT_ID":"49755","CLASSIFICATION_TYPE":"U","MEAN_ANOMALY":"191.3394","GP_ID":"196246618","INCLINATION":"53.2175","APOAPSIS":"526.652","LAUNCH_DATE":"2021-12-02","TLE_LINE1":"1 49755U 21115AH  22048.91667824 -.00662212  00000-0 -39001-1 0  9994","MEAN_MOTION":"15.13529281","BSTAR":"-0.03900100000000","ARG_OF_PERICENTER":"48.8218","OBJECT_ID":"2021-115AH","MEAN_MOTION_DOT":"-0.00662212","OBJECT_TYPE":"PAYLOAD","DECAY_DATE":null,"TLE_LINE2":"2 49755  53.2175 316.5961 0001743  48.8218 191.3394 15.13529281  3642","REV_AT_EPOCH":"364","RA_OF_ASC_NODE":"316.5961","MEAN_MOTION_DDOT":"0.0000000000000","ELEMENT_SET_NO":"999","FILE":"3305402","TIME_SYSTEM":"UTC","REF_FRAME":"TEME","ECCENTRICITY":"0.00017430","CENTER_NAME":"EARTH","COUNTRY_CODE":"US"},{"OBJECT_NAME":"STARLINK-3207","PERIAPSIS":"442.343","EPOCH":"2022-02-17T22:00:00.999936","NORAD_CAT_ID":"49756","CLASSIFICATION_TYPE":"U","MEAN_ANOMALY":"75.5142","PERIOD":"93.476","EPHEMERIS_TYPE":"0","RCS_SIZE":"LARGE","SITE":"AFETR","SEMIMAJOR_AXIS":"6822.751","MEAN_ELEMENT_THEORY":"SGP4","ARG_OF_PERICENTER":"13.6271","BSTAR":"-0.00118070000000","OBJECT_ID":"2021-115AJ","MEAN_MOTION_DOT":"-0.00048731","GP_ID":"196244866","INCLINATION":"53.2176","APOAPSIS":"446.889","LAUNCH_DATE":"2021-12-02","TLE_LINE1":"1 49756U 21115AJ  22048.91667824 -.00048731  00000-0 -11807-2 0  9994","MEAN_MOTION":"15.40506345","RA_OF_ASC_NODE":"314.6452","MEAN_MOTION_DDOT":"0.0000000000000","OBJECT_TYPE":"PAYLOAD","DECAY_DATE":null,"TLE_LINE2":"2 49756  53.2176 314.6452 0003331  13.6271  75.5142 15.40506345  3653","REV_AT_EPOCH":"365","REF_FRAME":"TEME","ECCENTRICITY":"0.00033310","CENTER_NAME":"EARTH","COUNTRY_CODE":"US","ELEMENT_SET_NO":"999","FILE":"3305402","TIME_SYSTEM":"UTC"},{"SITE":"AFETR","PERIOD":"93.476","EPHEMERIS_TYPE":"0","RCS_SIZE":"LARGE","MEAN_ELEMENT_THEORY":"SGP4","SEMIMAJOR_AXIS":"6822.759","EPOCH":"2022-02-17T22:00:00.999936","PERIAPSIS":"442.474","OBJECT_NAME":"STARLINK-3197","CLASSIFICATION_TYPE":"U","MEAN_ANOMALY":"76.7327","NORAD_CAT_ID":"49757","INCLINATION":"53.2181","APOAPSIS":"446.774","GP_ID":"196245617","LAUNCH_DATE":"2021-12-02","TLE_LINE1":"1 49757U 21115AK  22048.91667824 -.00057074  00000-0 -13862-2 0  9998","MEAN_MOTION":"15.40503563","ARG_OF_PERICENTER":"15.5639","OBJECT_ID":"2021-115AK","BSTAR":"-0.00138620000000","MEAN_MOTION_DOT":"-0.00057074","OBJECT_TYPE":"PAYLOAD","TLE_LINE2":"2 49757  53.2181 314.6423 0003151  15.5639  76.7327 15.40503563  3610","DECAY_DATE":null,"REV_AT_EPOCH":"361","MEAN_MOTION_DDOT":"0.0000000000000","RA_OF_ASC_NODE":"314.6423","ELEMENT_SET_NO":"999","FILE":"3305402","TIME_SYSTEM":"UTC","REF_FRAME":"TEME","ECCENTRICITY":"0.00031510","CENTER_NAME":"EARTH","COUNTRY_CODE":"US"},{"ARG_OF_PERICENTER":"14.7805","OBJECT_ID":"2021-115AL","BSTAR":"-0.00191500000000","MEAN_MOTION_DOT":"-0.00078476","APOAPSIS":"446.638","INCLINATION":"53.2176","GP_ID":"196245868","LAUNCH_DATE":"2021-12-02","TLE_LINE1":"1 49758U 21115AL  22048.91667824 -.00078476  00000-0 -19150-2 0  9994","MEAN_MOTION":"15.40504881","PERIAPSIS":"442.603","EPOCH":"2022-02-17T22:00:00.999936","OBJECT_NAME":"STARLINK-3194","CLASSIFICATION_TYPE":"U","MEAN_ANOMALY":"72.2869","NORAD_CAT_ID":"49758","SITE":"AFETR","PERIOD":"93.476","RCS_SIZE":"LARGE","EPHEMERIS_TYPE":"0","SEMIMAJOR_AXIS":"6822.755","MEAN_ELEMENT_THEORY":"SGP4","REF_FRAME":"TEME","ECCENTRICITY":"0.00029570","CENTER_NAME":"EARTH","COUNTRY_CODE":"US","FILE":"3305402","ELEMENT_SET_NO":"999","TIME_SYSTEM":"UTC","MEAN_MOTION_DDOT":"0.0000000000000","RA_OF_ASC_NODE":"314.6485","OBJECT_TYPE":"PAYLOAD","TLE_LINE2":"2 49758  53.2176 314.6485 0002957  14.7805  72.2869 15.40504881  3618","REV_AT_EPOCH":"361","DECAY_DATE":null}];
